{
  "type": "FeatureCollection",
  "features": [
    {
      "type": "Feature",
      "properties": {
        "norad_id": 30691,
        "name": "FENGYUN 1C DEB",
        "group": "fengyun-1c-debris",
        "lat": -72.63538447702118,
        "lon": 150.5089178159711,
        "alt_km": 846.9387328994708,
        "timestamp": "2025-12-14T16:47:40.961827+00:00",
        "meta_object_name": "FENGYUN 1C DEB",
        "meta_object_id": "1999-025AQZ",
        "meta_epoch": "2025-12-14T00:17:31.685856",
        "meta_mean_motion": 13.89438547,
        "meta_eccentricity": 0.01393529,
        "meta_inclination": 98.7435,
        "meta_ra_of_asc_node": 359.3444,
        "meta_arg_of_pericenter": 229.6305,
        "meta_mean_anomaly": 187.0366,
        "meta_ephemeris_type": 0,
        "meta_classification_type": "U",
        "meta_norad_cat_id": 30691,
        "meta_element_set_no": 999,
        "meta_rev_at_epoch": 95134,
        "meta_bstar": 0.0012757004,
        "meta_mean_motion_dot": 1.643e-05,
        "meta_mean_motion_ddot": 0,
        "tle_line1": "1 30691U 99025AQZ 25348.01217229  .00001643  00000+0  12757-2 0  9997",
        "tle_line2": "2 30691  98.7435 359.3444 0139352 229.6305 187.0366 13.89438547951344"
      },
      "geometry": {
        "type": "Point",
        "coordinates": [
          150.5089178159711,
          -72.63538447702118
        ]
      }
    },
    {
      "type": "Feature",
      "properties": {
        "norad_id": 30693,
        "name": "FENGYUN 1C DEB",
        "group": "fengyun-1c-debris",
        "lat": 2.7227420997820366,
        "lon": 154.18649576551098,
        "alt_km": 830.23069990769,
        "timestamp": "2025-12-14T16:47:40.961838+00:00",
        "meta_object_name": "FENGYUN 1C DEB",
        "meta_object_id": "1999-025ARB",
        "meta_epoch": "2025-12-13T21:16:11.306208",
        "meta_mean_motion": 14.13288274,
        "meta_eccentricity": 0.00293309,
        "meta_inclination": 98.6862,
        "meta_ra_of_asc_node": 332.9803,
        "meta_arg_of_pericenter": 164.1267,
        "meta_mean_anomaly": 196.0831,
        "meta_ephemeris_type": 0,
        "meta_classification_type": "U",
        "meta_norad_cat_id": 30693,
        "meta_element_set_no": 999,
        "meta_rev_at_epoch": 96951,
        "meta_bstar": 0.00042448904,
        "meta_mean_motion_dot": 7.56e-06,
        "meta_mean_motion_ddot": 0,
        "tle_line1": "1 30693U 99025ARB 25347.88624197  .00000756  00000+0  42449-3 0  9995",
        "tle_line2": "2 30693  98.6862 332.9803 0029330 164.1267 196.0831 14.13288274969512"
      },
      "geometry": {
        "type": "Point",
        "coordinates": [
          154.18649576551098,
          2.7227420997820366
        ]
      }
    },
    {
      "type": "Feature",
      "properties": {
        "norad_id": 30694,
        "name": "FENGYUN 1C DEB",
        "group": "fengyun-1c-debris",
        "lat": -44.58287849137519,
        "lon": 126.13424816111025,
        "alt_km": 573.6851285307885,
        "timestamp": "2025-12-14T16:47:40.961848+00:00",
        "meta_object_name": "FENGYUN 1C DEB",
        "meta_object_id": "1999-025ARC",
        "meta_epoch": "2025-12-13T20:23:13.434720",
        "meta_mean_motion": 14.86518555,
        "meta_eccentricity": 0.01301531,
        "meta_inclination": 99.047,
        "meta_ra_of_asc_node": 314.2017,
        "meta_arg_of_pericenter": 291.2432,
        "meta_mean_anomaly": 67.492,
        "meta_ephemeris_type": 0,
        "meta_classification_type": "U",
        "meta_norad_cat_id": 30694,
        "meta_element_set_no": 999,
        "meta_rev_at_epoch": 112,
        "meta_bstar": 0.0017163983,
        "meta_mean_motion_dot": 0.00017691,
        "meta_mean_motion_ddot": 0,
        "tle_line1": "1 30694U 99025ARC 25347.84946105  .00017691  00000+0  17164-2 0  9999",
        "tle_line2": "2 30694  99.0470 314.2017 0130153 291.2432  67.4920 14.86518555  1127"
      },
      "geometry": {
        "type": "Point",
        "coordinates": [
          126.13424816111025,
          -44.58287849137519
        ]
      }
    },
    {
      "type": "Feature",
      "properties": {
        "norad_id": 30696,
        "name": "FENGYUN 1C DEB",
        "group": "fengyun-1c-debris",
        "lat": -52.777140083533915,
        "lon": -153.5086419302724,
        "alt_km": 774.8969523005753,
        "timestamp": "2025-12-14T16:47:40.961858+00:00",
        "meta_object_name": "FENGYUN 1C DEB",
        "meta_object_id": "1999-025ARE",
        "meta_epoch": "2025-12-13T22:14:23.271072",
        "meta_mean_motion": 14.4477281,
        "meta_eccentricity": 0.00898954,
        "meta_inclination": 98.3893,
        "meta_ra_of_asc_node": 36.9295,
        "meta_arg_of_pericenter": 122.2298,
        "meta_mean_anomaly": 51.5365,
        "meta_ephemeris_type": 0,
        "meta_classification_type": "U",
        "meta_norad_cat_id": 30696,
        "meta_element_set_no": 999,
        "meta_rev_at_epoch": 98321,
        "meta_bstar": 0.0010161879,
        "meta_mean_motion_dot": 3.664e-05,
        "meta_mean_motion_ddot": 0,
        "tle_line1": "1 30696U 99025ARE 25347.92665823  .00003664  00000+0  10162-2 0  9991",
        "tle_line2": "2 30696  98.3893  36.9295 0089895 122.2298  51.5365 14.44772810983211"
      },
      "geometry": {
        "type": "Point",
        "coordinates": [
          -153.5086419302724,
          -52.777140083533915
        ]
      }
    },
    {
      "type": "Feature",
      "properties": {
        "norad_id": 30697,
        "name": "FENGYUN 1C DEB",
        "group": "fengyun-1c-debris",
        "lat": 37.90712124243207,
        "lon": -127.4519273140123,
        "alt_km": 794.2874628639674,
        "timestamp": "2025-12-14T16:47:40.961868+00:00",
        "meta_object_name": "FENGYUN 1C DEB",
        "meta_object_id": "1999-025ARF",
        "meta_epoch": "2025-12-13T15:25:29.412192",
        "meta_mean_motion": 14.13526984,
        "meta_eccentricity": 0.00880806,
        "meta_inclination": 98.9076,
        "meta_ra_of_asc_node": 44.481,
        "meta_arg_of_pericenter": 182.7499,
        "meta_mean_anomaly": 343.1605,
        "meta_ephemeris_type": 0,
        "meta_classification_type": "U",
        "meta_norad_cat_id": 30697,
        "meta_element_set_no": 999,
        "meta_rev_at_epoch": 96273,
        "meta_bstar": 0.0020115058,
        "meta_mean_motion_dot": 3.888e-05,
        "meta_mean_motion_ddot": 0,
        "tle_line1": "1 30697U 99025ARF 25347.64270153  .00003888  00000+0  20115-2 0  9996",
        "tle_line2": "2 30697  98.9076  44.4810 0088080 182.7499 343.1605 14.13526984962733"
      },
      "geometry": {
        "type": "Point",
        "coordinates": [
          -127.4519273140123,
          37.90712124243207
        ]
      }
    },
    {
      "type": "Feature",
      "properties": {
        "norad_id": 30699,
        "name": "FENGYUN 1C DEB",
        "group": "fengyun-1c-debris",
        "lat": 32.711411823555,
        "lon": -65.58178094995377,
        "alt_km": 734.2036307479348,
        "timestamp": "2025-12-14T16:47:40.961878+00:00",
        "meta_object_name": "FENGYUN 1C DEB",
        "meta_object_id": "1999-025ARH",
        "meta_epoch": "2025-12-13T20:12:12.928320",
        "meta_mean_motion": 14.46962907,
        "meta_eccentricity": 0.00043438,
        "meta_inclination": 99.3112,
        "meta_ra_of_asc_node": 107.427,
        "meta_arg_of_pericenter": 252.0635,
        "meta_mean_anomaly": 108.0081,
        "meta_ephemeris_type": 0,
        "meta_classification_type": "U",
        "meta_norad_cat_id": 30699,
        "meta_element_set_no": 999,
        "meta_rev_at_epoch": 97629,
        "meta_bstar": 0.002612432,
        "meta_mean_motion_dot": 9.456e-05,
        "meta_mean_motion_ddot": 0,
        "tle_line1": "1 30699U 99025ARH 25347.84181630  .00009456  00000+0  26124-2 0  9994",
        "tle_line2": "2 30699  99.3112 107.4270 0004343 252.0635 108.0081 14.46962907976291"
      },
      "geometry": {
        "type": "Point",
        "coordinates": [
          -65.58178094995377,
          32.711411823555
        ]
      }
    },
    {
      "type": "Feature",
      "properties": {
        "norad_id": 30700,
        "name": "FENGYUN 1C DEB",
        "group": "fengyun-1c-debris",
        "lat": 72.9706311180659,
        "lon": -12.426750817221684,
        "alt_km": 776.0297628392809,
        "timestamp": "2025-12-14T16:47:40.961889+00:00",
        "meta_object_name": "FENGYUN 1C DEB",
        "meta_object_id": "1999-025ARJ",
        "meta_epoch": "2025-12-13T21:53:20.841792",
        "meta_mean_motion": 14.23795215,
        "meta_eccentricity": 0.0087157,
        "meta_inclination": 98.5417,
        "meta_ra_of_asc_node": 16.1934,
        "meta_arg_of_pericenter": 139.9141,
        "meta_mean_anomaly": 220.8513,
        "meta_ephemeris_type": 0,
        "meta_classification_type": "U",
        "meta_norad_cat_id": 30700,
        "meta_element_set_no": 999,
        "meta_rev_at_epoch": 97586,
        "meta_bstar": 0.00023344324,
        "meta_mean_motion_dot": 5.13e-06,
        "meta_mean_motion_ddot": 0,
        "tle_line1": "1 30700U 99025ARJ 25347.91204678  .00000513  00000+0  23344-3 0  9990",
        "tle_line2": "2 30700  98.5417  16.1934 0087157 139.9141 220.8513 14.23795215975861"
      },
      "geometry": {
        "type": "Point",
        "coordinates": [
          -12.426750817221684,
          72.9706311180659
        ]
      }
    }
  ]
}